1 42390U 00055SJ  18204.66320358 +.00000432 +00000-0 +24104-3 0  9999
2 42390 098.8163 278.9497 0017848 205.0035 155.0276 14.15964796124852
1 41739U 09055G   18204.81867984 +.00346552 +00000-0 +98005-2 0  9998
2 41739 098.5751 334.5449 0036488 199.7167 160.2664 15.34279042107596
1 43427U 16033E   18204.27675327 +.00001467 +00000-0 +14884-3 0  9993
2 43427 097.4827 234.7692 0213881 137.5988 224.1975 14.76773560104838
1 42332U 00055PY  18204.48434853 +.00014699 +00000-0 +61411-2 0  9992
2 42332 099.0882 302.1922 0046769 311.4940 048.2229 14.25629427123145
1 42240U 93016CU  18204.12668089 +.00000883 +00000-0 +44765-3 0  9994
2 42240 070.9738 015.2495 0141688 307.2304 051.5957 14.13703587537849
1 42255U 93016DK  18204.55486375 +.00000270 +00000-0 +15421-3 0  9990
2 42255 071.0070 280.7251 0011292 232.0520 190.8515 14.18263870241476
1 42672U 15069E   18203.82007646 +.00000375 +00000-0 +76965-4 0  9991
2 42672 098.0060 159.2999 0163143 090.2030 271.7864 14.58185280135491
1 41676U 07052H   17293.19324567  .00003645  00000-0  11038+0 0  9997
2 41676  65.6862   1.7040 5483894 356.0781   5.3725  4.20436723 48760
1 43348U 94074AL  18204.35235887 +.00003194 +00000-0 +40226-3 0  9996
2 43348 098.0708 250.5822 0001933 095.8062 264.3371 14.82729060061008
1 42259U 95015FZ  18201.96780585 +.00000443 +00000-0 +22577-3 0  9999
2 42259 098.7724 209.5879 0016210 032.5170 327.7002 14.20712443149664
1 42374U 00055RS  18204.15435639 +.00000740 +00000-0 +42812-3 0  9992
2 42374 098.9016 277.1848 0018125 111.6697 248.6406 14.11933570117508
1 43410U 13052E   18202.10845193 +.00000073 +00000-0 +95812-4 0  9996
2 43410 098.8314 157.8500 0246933 184.7108 175.1716 13.74157281233666
1 42247U 93016DB  18204.57968923 +.00001367 +00000-0 +62706-3 0  9993
2 42247 070.9923 284.8444 0126962 240.1758 118.6697 14.18893891724449
1 42316U 95015JJ  18204.87451138 +.00001825 +00000-0 +62420-3 0  9991
2 42316 098.7084 234.8123 0055706 292.8344 066.6964 14.36649764172144
1 41712U 00055PS  18203.05526173 +.00000746 +00000-0 +41581-3 0  9997
2 41712 098.8876 277.3882 0054839 143.4023 217.0915 14.13231584116034
1 42291U 95015HH  18204.18846073 +.00001516 +00000-0 +73270-3 0  9995
2 42291 098.7524 199.9852 0024779 163.8666 196.3304 14.19884067158753
1 42406U 00055TA  18204.45397490 +.00000166 +00000-0 +11024-3 0  9996
2 42406 098.8433 280.0357 0016874 291.9711 067.9668 14.14164586120616
1 41826U 99025EYD 18204.10563115 +.00000398 +00000-0 +24051-3 0  9998
2 41826 098.9305 261.4961 0063435 348.7986 011.1770 14.11277058091881
1 42422U 00055TS  18204.43033903 +.00000496 +00000-0 +28422-3 0  9994
2 42422 098.8789 281.3388 0014386 293.5571 066.4091 14.13987777117540
1 42294U 95015HL  18203.89533590 +.00001257 +00000-0 +73456-3 0  9990
2 42294 098.8038 187.4337 0048579 289.0977 070.4936 14.09630112163216
1 42409U 00055TD  18204.48740296 +.00000783 +00000-0 +36174-3 0  9996
2 42409 098.7866 285.1258 0051589 166.4840 193.7733 14.23112874121418
1 41829U 99025EYG 18204.58454648 +.00000494 +00000-0 +29256-3 0  9992
2 41829 098.9332 262.1706 0064516 346.7716 013.1761 14.11296563091322
1 43533U 18056E   18204.92450683 +.01856288 +24642-5 +33161-2 0  9997
2 43533 098.0543 277.3011 0151542 117.3087 244.3579 15.84020531002303
1 42425U 00055TV  18204.40295584 +.00000491 +00000-0 +32383-3 0  9995
2 42425 098.8697 268.5226 0030902 093.7046 266.7656 14.06117292100046
1 42298U 95015HQ  18204.87242089 +.00000641 +00000-0 +75700-3 0  9993
2 42298 098.7166 076.2622 0283919 224.9017 132.8841 13.55367270141503
1 42351U 00055QT  18204.67600034 +.00000686 +00000-0 +30528-3 0  9997
2 42351 098.7331 283.5420 0055484 174.0714 186.1134 14.25288523119782
1 43150U 18006E   18204.56669182 +.00003552 +00000-0 +10273-3 0  9997
2 43150 097.4654 328.3449 0047776 353.6990 006.3646 15.35178939029297
1 42361U 00055RD  18203.98477631 +.00000841 +00000-0 +50984-3 0  9997
2 42361 098.8895 264.8014 0090130 158.4602 202.0396 14.07043992127572
1 43366U 99040P   18169.06813867 -.00000009  00000-0 -84422-4 0  9993
2 43366  28.2252  93.6334 3941669 200.1033 138.6443  7.02701678 63039
1 43037U 17077D   18204.88997120 +.00004882 +00000-0 +12995-3 0  9999
2 43037 097.5381 288.3194 0052444 210.4926 149.3266 15.37306695035587
1 41698U 10007Q   18204.39912983 +.00000238 +00000-0 +30013-2 0  9997
2 41698 065.0711 132.6289 5514929 056.0231 344.7616 04.34527472062651
1 42278U 95015GU  18204.91446494 +.00000648 +00000-0 +39013-3 0  9996
2 42278 098.7927 186.8062 0043224 270.0217 089.6000 14.09799931157796
1 42393U 00055SM  18203.63463363 +.00000449 +00000-0 +31562-3 0  9996
2 42393 098.9825 270.9522 0058338 099.0742 261.7031 14.02420586122589
1 41742U 09055K   18204.44870965 +.00000426 +00000-0 +15025-3 0  9993
2 41742 098.4975 283.9044 0009245 292.4401 067.5807 14.39625324105440
1 43430U 17034F   18203.97783616 +.00000110 +00000-0 +47383-4 0  9991
2 43430 043.0147 076.2590 0244067 270.6401 086.6464 14.51670246053791
1 42335U 00055QB  18203.97245801 +.00000507 +00000-0 +27255-3 0  9993
2 42335 098.7504 272.5933 0030809 275.9046 083.8617 14.17077863122873
1 42675U 16012T   18203.74725205 +.00004210 +00000-0 +26550-3 0  9998
2 42675 031.0129 061.0667 0006630 103.3617 256.7760 15.07408440081391
1 41680U 07052M   16333.23774355  .00001267  00000-0  13651-1 0  9998
2 41680  64.2133  24.4426 4833597  31.4908 353.3541  5.30764298 40525
1 43351U 95021J   18204.77588939 +.00002099 +00000-0 +60377-3 0  9990
2 43351 098.7531 225.1050 0006536 150.4169 209.7393 14.45864480155998
1 42262U 95015GC  18204.79307777 +.00000838 +00000-0 +34098-3 0  9994
2 42262 098.6880 218.1696 0050663 009.0847 351.1240 14.29468178171047
1 42377U 00055RV  18204.49884696 +.00002259 +00000-0 +10480-2 0  9995
2 42377 099.1037 304.9038 0035978 153.7468 206.5541 14.21434772087796
1 43413U 13068B   18204.76147191 +.00000219 +00000-0 +76779-4 0  9996
2 43413 097.9716 137.2873 0131169 119.0003 242.4406 14.38671783236193
1 42250U 93016DE  18204.91831095 +.00001252 +00000-0 +61191-3 0  9994
2 42250 070.9994 015.3837 0007981 130.0844 230.0982 14.19888569139843
1 42319U 95015JM  18204.93858110 +.00000613 +00000-0 +36679-3 0  9993
2 42319 098.8617 200.1205 0035269 287.9698 071.7630 14.10572218169296
1 41715U 00055PV  18204.39253649 +.00000417 +00000-0 +24815-3 0  9999
2 41715 098.7542 265.9894 0012311 346.1308 013.9525 14.12720170117426
1 43386U 09055M   18204.86500422 +.00002021 +00000-0 +54767-3 0  9992
2 43386 098.4523 288.3156 0028383 245.5473 114.2758 14.48538707106174
1 42322U 95015JQ  18204.76780786 +.00001216 +00000-0 +61126-3 0  9996
2 42322 098.7502 197.6478 0047839 156.1962 204.1440 14.17708040169934
1 41718U 15020F   18201.06250378  .00000060  00000-0  17171-3 0  9998
2 41718  82.4911 321.2871 0228032 287.9693  69.6679 12.91187024147025
1 43389U 09055Q   18186.30448708  .00182147  00000-0  72870-2 0  9993
2 43389  98.6127 313.1080 0038365 197.8959 162.0926 15.23619162 76758
1 41832U 99025EYK 18204.22750724 +.00000422 +00000-0 +25529-3 0  9991
2 41832 098.9285 261.2972 0063496 349.8069 010.1810 14.10978740091829
1 43543U 10007AC  18199.96267203 +.00007876 +00000-0 +24442-1 0  9995
2 43543 065.9373 158.3633 5743653 043.0739 349.9291 04.19585551002082
1 42428U 00055TY  18204.05415762 +.00000296 +00000-0 +16561-3 0  9994
2 42428 098.8810 288.5709 0027646 234.2054 125.6551 14.18035741080861
1 42301U 95015HT  18204.88409115 +.00002088 +00000-0 +61698-3 0  9992
2 42301 098.7292 247.6160 0075542 255.9340 103.3444 14.42965848158921
1 41660U 00055NZ  18204.48086396 +.00000584 +00000-0 +30786-3 0  9990
2 41660 098.8284 282.0462 0023124 214.4787 145.4889 14.17684557116855
1 42354U 00055QW  18204.42597465 +.00000529 +00000-0 +36509-3 0  9997
2 42354 099.0192 279.6295 0015749 340.7177 019.3391 14.03594094118190
1 43214U 99025EYN 18204.08666059 +.00000421 +00000-0 +25474-3 0  9996
2 43214 098.9288 261.1605 0063475 350.2641 009.7296 14.10964682022353
1 42364U 00055RG  18203.99679536 +.00000717 +00000-0 +40385-3 0  9995
2 42364 098.8807 277.7551 0061787 330.6432 029.1273 14.12639422118902
1 43400U 12026M   18049.18518875 -.00000128  00000-0  00000+0 0  9998
2 43400  12.8400  17.6679 4101926 308.9841  21.0336  1.76667666  6901
1 43369U 01056N   18203.43199253 +.00000729 +00000-0 +40290-3 0  9993
2 43369 099.2647 286.9201 0096441 191.5783 231.2839 14.12431548221657
1 43095U 17084B   18204.67327953 +.00001754 +00000-0 +74069-4 0  9995
2 43095 097.4405 281.4736 0009130 247.7873 112.2397 15.24576384031839
1 41702U 10007U   18204.15766619 +.00018330 +00000-0 +67158-1 0  9991
2 41702 065.8378 130.1920 5203363 050.8825 344.9368 04.95520174059670
1 42281U 95015GX  18204.86548323 +.00000809 +00000-0 +34230-3 0  9993
2 42281 098.7262 221.7037 0043981 331.7876 028.0923 14.27744998169448
1 42396U 00055SQ  18203.44202858 +.00000728 +00000-0 +34615-3 0  9990
2 42396 098.8019 284.4487 0043508 184.6645 175.4132 14.22045604124347
1 41798U 14016B   18204.04921442 +.00004404 +00000-0 +52450-3 0  9993
2 41798 098.1669 233.6716 0061084 010.5405 349.7072 14.83547039102203
1 43487U 18048D   18204.64777935 +.00000258 +00000-0 +45670-4 0  9991
2 43487 097.9096 278.5327 0036436 087.7090 272.8290 14.74843668007586
1 42412U 00055TG  18204.64124294 +.00001186 +00000-0 +61367-3 0  9992
2 42412 098.8150 274.5202 0016304 285.9315 074.0063 14.16825328120851
1 42338U 00055QE  18203.47272888  .00001377  00000-0  59255-3 0  9997
2 42338  98.7582 282.3098 0052760 170.9017 189.3131 14.25528664124835
1 42678U 16049C   18204.81662864 +.00000016 +00000-0 +16927-4 0  9999
2 42678 098.4081 215.2838 0009968 105.0653 255.1642 14.45293836097017
1 41684U 07052R   18150.16903462 -.00003298  00000-0 -55045-1 0  9997
2 41684  62.9458 213.1034 5183933  24.7236 353.4874  4.71821960 62357
1 42265U 95015GF  18204.21919991 +.00000460 +00000-0 +24187-3 0  9990
2 42265 098.7866 208.6418 0007967 080.6675 279.5401 14.18931213137692
1 42380U 00055RY  18204.48588228 +.00001570 +00000-0 +69009-3 0  9997
2 42380 098.8585 292.0951 0049604 175.7286 184.4326 14.24321024123376
